NORAD_CAT_ID,OBJECT_NAME,OBJECT_TYPE,EPOCH,MEAN_MOTION,ECCENTRICITY,INCLINATION,RA_OF_ASC_NODE,ARG_OF_PERICENTER,MEAN_ANOMALY,BSTAR,MEAN_MOTION_DOT,MEAN_MOTION_DDOT,TLE_LINE0,TLE_LINE1,TLE_LINE2,SEMIMAJOR_AXIS,PERIOD,APOGEE,PERIGEE,DECAYED
55399.0,STARLINK-5276,PAYLOAD,2023-11-14 16:20:35,14.98324699,0.0002914,70.0007,37.4627,268.4442,91.6383,-6.5383e-05,-8.73e-06,0.0,0 STARLINK-5276,1 55399U 23014J   23318.68096613 -.00000873  00000-0 -65383-4 0  9996,2 55399  70.0007  37.4627 0002914 268.4442  91.6383 14.98324699 45332,6950.209,96.107,574.1,570.049,0.0
55399.0,STARLINK-5276,PAYLOAD,2023-11-15 11:34:11,14.98333191,0.0003077,70.0001,35.4419,270.7815,89.2992,-7.5699e-05,-9.96e-06,0.0,0 STARLINK-5276,1 55399U 23014J   23319.48208080 -.00000996  00000-0 -75699-4 0  9995,2 55399  70.0001  35.4419 0003077 270.7815  89.2992 14.98333191 44519,6950.183,96.107,574.187,569.909,0.0
55399.0,STARLINK-5276,PAYLOAD,2023-11-15 13:10:21,14.98303561,0.0002896,70.002,35.2745,251.7265,108.3579,-0.00044772,-5.427e-05,0.0,0 STARLINK-5276,1 55399U 23014J   23319.54886572 -.00005427  00000-0 -44772-3 0  9991,2 55399  70.0020  35.2745 0002896 251.7265 108.3579 14.98303561 45463,6950.275,96.109,574.152,570.127,0.0
55399.0,STARLINK-5276,PAYLOAD,2023-11-15 22:47:08,14.98328689,0.0002272,70.002,34.2637,270.8387,89.2511,-5.1499e-05,-7.07e-06,0.0,0 STARLINK-5276,1 55399U 23014J   23319.94940404 -.00000707  00000-0 -51499-4 0  9991,2 55399  70.0020  34.2637 0002272 270.8387  89.2511 14.98328689 44580,6950.197,96.107,573.641,570.483,0.0
55399.0,STARLINK-5276,PAYLOAD,2023-11-16 08:23:56,14.98324407,0.0003038,70.0011,33.2542,267.6955,92.3856,8.3139e-05,8.99e-06,0.0,0 STARLINK-5276,1 55399U 23014J   23320.34996076  .00000899  00000-0  83139-4 0  9999,2 55399  70.0011  33.2542 0003038 267.6955  92.3856 14.98324407 45582,6950.21,96.107,574.187,569.964,0.0
55399.0,STARLINK-5276,PAYLOAD,2023-11-16 14:48:28,14.98321886,0.0002649,70.0013,32.5812,256.8522,103.2341,0.00012969,1.454e-05,0.0,0 STARLINK-5276,1 55399U 23014J   23320.61700178  .00001454  00000-0  12969-3 0  9995,2 55399  70.0013  32.5812 0002649 256.8522 103.2341 14.98321886 45627,6950.218,96.108,573.924,570.242,0.0
55399.0,STARLINK-5276,PAYLOAD,2023-11-17 03:37:33,14.98328629,0.0003083,70.0012,31.2346,267.615,92.4656,2.7607e-05,2.36e-06,0.0,0 STARLINK-5276,1 55399U 23014J   23321.15107981  .00000236  00000-0  27607-4 0  9991,2 55399  70.0012  31.2346 0003083 267.6150  92.4656 14.98328629 44768,6950.197,96.107,574.205,569.919,0.0
55399.0,STARLINK-5276,PAYLOAD,2023-11-17 13:14:22,14.98323715,0.0002281,70.0021,30.2257,238.5964,121.4972,-2.9722e-05,-4.47e-06,0.0,0 STARLINK-5276,1 55399U 23014J   23321.55164447 -.00000447  00000-0 -29722-4 0  9991,2 55399  70.0021  30.2257 0002281 238.5964 121.4972 14.98323715 45763,6950.212,96.107,573.663,570.492,0.0
55399.0,STARLINK-5276,PAYLOAD,2023-11-18 03:39:34,14.98340161,0.0002466,70.0009,28.7101,266.7137,93.374,-0.00012417,-1.575e-05,0.0,0 STARLINK-5276,1 55399U 23014J   23322.15247764 -.00001575  00000-0 -12417-3 0  9997,2 55399  70.0009  28.7101 0002466 266.7137  93.3740 14.98340161 44919,6950.161,96.106,573.74,570.313,0.0
55399.0,STARLINK-5276,PAYLOAD,2023-11-18 11:40:11,14.98389825,0.0002329,70.0022,27.8715,227.6511,132.4451,3.8502e-05,3.67e-06,0.0,0 STARLINK-5276,1 55399U 23014J   23322.48624308  .00000367  00000-0  38502-4 0  9996,2 55399  70.0022  27.8715 0002329 227.6511 132.4451 14.98389825 44964,6950.008,96.103,573.492,570.254,0.0
55399.0,STARLINK-5276,PAYLOAD,2023-11-18 21:17:02,14.98332128,0.0003006,70.0002,26.856,271.7689,88.3125,7.8687e-06,1e-08,0.0,0 STARLINK-5276,1 55399U 23014J   23322.88683662  .00000001  00000-0  78687-5 0  9992,2 55399  70.0002  26.8560 0003006 271.7689  88.3125 14.98332128 45960,6950.186,96.107,574.141,569.962,0.0
55399.0,STARLINK-5276,PAYLOAD,2023-11-19 13:18:23,14.98328274,0.0002438,70.0008,25.1741,261.5862,98.5021,2.3285e-05,1.85e-06,0.0,0 STARLINK-5276,1 55399U 23014J   23323.55443924  .00000185  00000-0  23285-4 0  9998,2 55399  70.0008  25.1741 0002438 261.5862  98.5021 14.98328274 46064,6950.198,96.107,573.758,570.369,0.0
55399.0,STARLINK-5276,PAYLOAD,2023-11-19 21:19:02,14.98352405,0.0001825,70.0037,24.3336,265.9318,94.1633,0.0003881,4.543e-05,0.0,0 STARLINK-5276,1 55399U 23014J   23323.88821846  .00004543  00000-0  38810-3 0  9998,2 55399  70.0037  24.3336 0001825 265.9318  94.1633 14.98352405 46110,6950.124,96.106,573.257,570.72,0.0
55399.0,STARLINK-5276,PAYLOAD,2023-11-20 10:08:07,14.98333365,0.0002842,70.0002,22.9861,267.9397,92.1436,4.6182e-05,4.58e-06,0.0,0 STARLINK-5276,1 55399U 23014J   23324.42231429  .00000458  00000-0  46182-4 0  9994,2 55399  70.0002  22.9861 0002842 267.9397  92.1436 14.98333365 45255,6950.182,96.107,574.023,570.072,0.0
55399.0,STARLINK-5276,PAYLOAD,2023-11-20 13:20:24,14.9833213,0.0002791,69.9999,22.6493,266.1509,93.9331,4.044e-05,3.9e-06,0.0,0 STARLINK-5276,1 55399U 23014J   23324.55583485  .00000390  00000-0  40440-4 0  9996,2 55399  69.9999  22.6493 0002791 266.1509  93.9331 14.98332130 46213,6950.186,96.107,573.991,570.112,0.0
55399.0,STARLINK-5276,PAYLOAD,2023-11-20 21:21:04,14.98337307,0.0003112,69.9998,21.8076,271.3501,88.7301,-7.398e-05,-9.76e-06,0.0,0 STARLINK-5276,1 55399U 23014J   23324.88963329 -.00000976  00000-0 -73980-4 0  9998,2 55399  69.9998  21.8076 0003112 271.3501  88.7301 14.98337307 46263,6950.17,96.107,574.198,569.872,0.0
55399.0,STARLINK-5276,PAYLOAD,2023-11-21 10:10:08,14.9833124,0.0002984,70.0003,20.4616,273.0296,87.0521,3.1125e-05,2.78e-06,0.0,0 STARLINK-5276,1 55399U 23014J   23325.42371487  .00000278  00000-0  31125-4 0  9995,2 55399  70.0003  20.4616 0002984 273.0296  87.0521 14.98331240 45405,6950.189,96.107,574.128,569.98,0.0
55399.0,STARLINK-5276,PAYLOAD,2023-11-21 13:22:24,14.9833291,0.0003108,69.9997,20.1238,273.8099,86.2705,4.0271e-05,3.88e-06,0.0,0 STARLINK-5276,1 55399U 23014J   23325.55723320  .00000388  00000-0  40271-4 0  9990,2 55399  69.9997  20.1238 0003108 273.8099  86.2705 14.98332910 46365,6950.184,96.107,574.209,569.889,0.0
55399.0,STARLINK-5276,PAYLOAD,2023-11-22 11:48:17,14.98336064,0.0002717,70.0001,17.7668,266.7002,93.3846,4.364e-05,4.28e-06,0.0,0 STARLINK-5276,1 55399U 23014J   23326.49186948  .00000428  00000-0  43640-4 0  9991,2 55399  70.0001  17.7668 0002717 266.7002  93.3846 14.98336064 45563,6950.174,96.107,573.928,570.151,0.0
55399.0,STARLINK-5276,PAYLOAD,2023-11-22 13:24:25,14.98336395,0.0002499,70.0003,17.5987,259.8884,100.1993,8.7961e-05,9.57e-06,0.0,0 STARLINK-5276,1 55399U 23014J   23326.55862787  .00000957  00000-0  87961-4 0  9991,2 55399  70.0003  17.5987 0002499 259.8884 100.1993 14.98336395 46518,6950.173,96.107,573.775,570.301,0.0
55399.0,STARLINK-5276,PAYLOAD,2023-11-23 03:49:39,14.98323523,0.0002584,70.0001,16.0846,282.9868,77.1003,-2.2153e-05,-3.57e-06,0.0,0 STARLINK-5276,1 55399U 23014J   23327.15948100 -.00000357  00000-0 -22153-4 0  9990,2 55399  70.0001  16.0846 0002584 282.9868  77.1003 14.98323523 45667,6950.213,96.107,573.874,570.282,0.0
55399.0,STARLINK-5276,PAYLOAD,2023-11-23 13:26:27,14.98320079,0.0002765,70.0004,15.075,263.6662,96.4182,-4.098e-05,-5.82e-06,0.0,0 STARLINK-5276,1 55399U 23014J   23327.56004387 -.00000582  00000-0 -40980-4 0  9993,2 55399  70.0004  15.0750 0002765 263.6662  96.4182 14.98320079 46668,6950.224,96.108,574.01,570.167,0.0
55399.0,STARLINK-5276,PAYLOAD,2023-11-24 03:51:40,14.98326984,0.0002906,69.9997,13.5592,267.5746,92.508,-3.407e-05,-4.99e-06,0.0,0 STARLINK-5276,1 55399U 23014J   23328.16088060 -.00000499  00000-0 -34070-4 0  9990,2 55399  69.9997  13.5592 0002906 267.5746  92.5080 14.98326984 45817,6950.202,96.107,574.087,570.047,0.0
55399.0,STARLINK-5276,PAYLOAD,2023-11-24 13:28:28,14.98329149,0.0002698,70.0001,12.549,267.1698,92.9153,5.477e-06,-2.8e-07,0.0,0 STARLINK-5276,1 55399U 23014J   23328.56143934 -.00000028  00000-0  54770-5 0  9993,2 55399  70.0001  12.5490 0002698 267.1698  92.9153 14.98329149 46814,6950.196,96.107,573.936,570.185,0.0
55399.0,STARLINK-5276,PAYLOAD,2023-11-25 03:53:40,14.98325153,0.0002544,70.0,11.0334,252.6643,107.4238,0.00013363,1.502e-05,0.0,0 STARLINK-5276,1 55399U 23014J   23329.16227708  .00001502  00000-0  13363-3 0  9990,2 55399  70.0000  11.0334 0002544 252.6643 107.4238 14.98325153 45965,6950.208,96.107,573.841,570.305,0.0
55399.0,STARLINK-5276,PAYLOAD,2023-11-25 13:30:30,14.9832096,0.0002333,70.0007,10.0223,261.4765,98.613,-0.00040801,-4.956e-05,0.0,0 STARLINK-5276,1 55399U 23014J   23329.56285752 -.00004956  00000-0 -40801-3 0  9992,2 55399  70.0007  10.0223 0002333 261.4765  98.6130 14.98320960 46961,6950.221,96.108,573.707,570.464,0.0
55399.0,STARLINK-5276,PAYLOAD,2023-11-26 02:19:34,14.98321121,0.0002913,70.0005,8.6785,258.0311,102.0521,-1.9394e-05,-3.24e-06,0.0,0 STARLINK-5276,1 55399U 23014J   23330.09693180 -.00000324  00000-0 -19394-4 0  9999,2 55399  70.0005   8.6785 0002913 258.0311 102.0521 14.98321121 46108,6950.22,96.108,574.11,570.061,0.0
55399.0,STARLINK-5276,PAYLOAD,2023-11-26 11:56:22,14.98328293,0.0002415,70.0015,7.6696,241.4271,118.6646,9.1093e-05,9.94e-06,0.0,0 STARLINK-5276,1 55399U 23014J   23330.49748607  .00000994  00000-0  91093-4 0  9995,2 55399  70.0015   7.6696 0002415 241.4271 118.6646 14.98328293 46161,6950.198,96.107,573.742,570.385,0.0
55399.0,STARLINK-5276,PAYLOAD,2023-11-27 03:57:43,14.98317085,0.0002729,70.0027,5.987,260.4132,99.6719,9.1095e-05,9.94e-06,0.0,0 STARLINK-5276,1 55399U 23014J   23331.16509085  .00000994  00000-0  91095-4 0  9997,2 55399  70.0027   5.9870 0002729 260.4132  99.6719 14.98317085 46261,6950.233,96.108,573.995,570.201,0.0
55399.0,STARLINK-5276,PAYLOAD,2023-11-27 11:58:24,14.98312641,0.0001757,70.0028,5.1441,296.0647,64.0331,0.00012042,1.344e-05,0.0,0 STARLINK-5276,1 55399U 23014J   23331.49889988  .00001344  00000-0  12042-3 0  9990,2 55399  70.0028   5.1441 0001757 296.0647  64.0331 14.98312641 47253,6950.247,96.108,573.333,570.89,0.0
